{"type": "FeatureCollection", "features": [ {"type": "Feature", "properties": {"norad_id": 33153, "name": "INTELSAT 25 (IS-25)", "group": "intelsat", "lat": 1.7501342856625077, "lon": 134.20715661032568, "alt_km": 35801.87795097584, "timestamp": "2025-12-10T05:46:13.465243+00:00", "meta": {"OBJECT_NAME": "INTELSAT 25 (IS-25)", "OBJECT_ID": "2008-034A", "EPOCH": "2025-12-09T11:42:40.881024", "MEAN_MOTION": 1.00270303, "ECCENTRICITY": 0.0005391, "INCLINATION": 2.2195, "RA_OF_ASC_NODE": 82.6821, "ARG_OF_PERICENTER": 184.562, "MEAN_ANOMALY": 315.4069, "EPHEMERIS_TYPE": 0, "CLASSIFICATION_TYPE": "U", "NORAD_CAT_ID": 33153, "ELEMENT_SET_NO": 999, "REV_AT_EPOCH": 6379, "BSTAR": 0, "MEAN_MOTION_DOT": -2.22e-06, "MEAN_MOTION_DDOT": 0}, "tle": {"line1": "1 33153U 08034A   25343.48797316 -.00000222  00000+0  00000+0 0  9997", "line2": "2 33153   2.2195  82.6821 0005391 184.5620 315.4069  1.00270303 63796"}}, "geometry": {"type": "Point", "coordinates": [134.20715661032568, 1.7501342856625077]}}, {"type": "Feature", "properties": {"norad_id": 33376, "name": "GALAXY 19 (G-19)", "group": "intelsat", "lat": 0.03447364659470003, "lon": 68.80677908382283, "alt_km": 35797.1505789364, "timestamp": "2025-12-10T05:46:13.465255+00:00", "meta": {"OBJECT_NAME": "GALAXY 19 (G-19)", "OBJECT_ID": "2008-045A", "EPOCH": "2025-12-09T13:06:40.336416", "MEAN_MOTION": 1.00278002, "ECCENTRICITY": 0.0003102, "INCLINATION": 0.0187, "RA_OF_ASC_NODE": 316.6753, "ARG_OF_PERICENTER": 305.1982, "MEAN_ANOMALY": 276.3406, "EPHEMERIS_TYPE": 0, "CLASSIFICATION_TYPE": "U", "NORAD_CAT_ID": 33376, "ELEMENT_SET_NO": 999, "REV_AT_EPOCH": 6300, "BSTAR": 0, "MEAN_MOTION_DOT": -1.38e-06, "MEAN_MOTION_DDOT": 0}, "tle": {"line1": "1 33376U 08045A   25343.54630019 -.00000138  00000+0  00000+0 0  9995", "line2": "2 33376   0.0187 316.6753 0003102 305.1982 276.3406  1.00278002 63002"}}, "geometry": {"type": "Point", "coordinates": [68.80677908382283, 0.03447364659470003]}}, {"type": "Feature", "properties": {"norad_id": 35493, "name": "FM-5", "group": "intelsat", "lat": 0.02295064510424018, "lon": 79.62327154521711, "alt_km": 35786.75965449966, "timestamp": "2025-12-10T05:46:13.465266+00:00", "meta": {"OBJECT_NAME": "FM-5", "OBJECT_ID": "2009-034A", "EPOCH": "2025-12-09T12:27:37.559808", "MEAN_MOTION": 1.00270693, "ECCENTRICITY": 6.254e-05, "INCLINATION": 0.0203, "RA_OF_ASC_NODE": 288.1902, "ARG_OF_PERICENTER": 248.5035, "MEAN_ANOMALY": 2.5822, "EPHEMERIS_TYPE": 0, "CLASSIFICATION_TYPE": "U", "NORAD_CAT_ID": 35493, "ELEMENT_SET_NO": 999, "REV_AT_EPOCH": 4474, "BSTAR": 0, "MEAN_MOTION_DOT": -1.98e-06, "MEAN_MOTION_DDOT": 0}, "tle": {"line1": "1 35493U 09034A   25343.51918472 -.00000198  00000+0  00000+0 0  9991", "line2": "2 35493   0.0203 288.1902 0000625 248.5035   2.5822  1.00270693 44747"}}, "geometry": {"type": "Point", "coordinates": [79.62327154521711, 0.02295064510424018]}}, {"type": "Feature", "properties": {"norad_id": 36097, "name": "INTELSAT 14 (IS-14)", "group": "intelsat", "lat": 0.02078757171166374, "lon": 120.75748739897293, "alt_km": 35795.83507671107, "timestamp": "2025-12-10T05:46:13.465278+00:00", "meta": {"OBJECT_NAME": "INTELSAT 14 (IS-14)", "OBJECT_ID": "2009-064A", "EPOCH": "2025-12-09T11:38:48.751008", "MEAN_MOTION": 1.0027037, "ECCENTRICITY": 0.0002671, "INCLINATION": 0.0101, "RA_OF_ASC_NODE": 349.1482, "ARG_OF_PERICENTER": 276.7938, "MEAN_ANOMALY": 302.243, "EPHEMERIS_TYPE": 0, "CLASSIFICATION_TYPE": "U", "NORAD_CAT_ID": 36097, "ELEMENT_SET_NO": 999, "REV_AT_EPOCH": 5870, "BSTAR": 0, "MEAN_MOTION_DOT": -2.71e-06, "MEAN_MOTION_DDOT": 0}, "tle": {"line1": "1 36097U 09064A   25343.48528647 -.00000271  00000+0  00000+0 0  9994", "line2": "2 36097   0.0101 349.1482 0002671 276.7938 302.2430  1.00270370 58702"}}, "geometry": {"type": "Point", "coordinates": [120.75748739897293, 0.02078757171166374]}}, {"type": "Feature", "properties": {"norad_id": 36106, "name": "INTELSAT 15 (IS-15)", "group": "intelsat", "lat": -0.030496606969450592, "lon": -109.08889618405294, "alt_km": 35776.34491591899, "timestamp": "2025-12-10T05:46:13.465290+00:00", "meta": {"OBJECT_NAME": "INTELSAT 15 (IS-15)", "OBJECT_ID": "2009-067A", "EPOCH": "2025-12-09T18:14:38.771808", "MEAN_MOTION": 1.00270764, "ECCENTRICITY": 0.0002474, "INCLINATION": 0.0278, "RA_OF_ASC_NODE": 286.2747, "ARG_OF_PERICENTER": 340.9153, "MEAN_ANOMALY": 170.3661, "EPHEMERIS_TYPE": 0, "CLASSIFICATION_TYPE": "U", "NORAD_CAT_ID": 36106, "ELEMENT_SET_NO": 999, "REV_AT_EPOCH": 3932, "BSTAR": 0, "MEAN_MOTION_DOT": -1.82e-06, "MEAN_MOTION_DDOT": 0}, "tle": {"line1": "1 36106U 09067A   25343.76017097 -.00000182  00000+0  00000+0 0  9992", "line2": "2 36106   0.0278 286.2747 0002474 340.9153 170.3661  1.00270764 39321"}}, "geometry": {"type": "Point", "coordinates": [-109.08889618405294, -0.030496606969450592]}}, {"type": "Feature", "properties": {"norad_id": 36131, "name": "DIRECTV 12", "group": "intelsat", "lat": -0.008142371362464465, "lon": 63.06114177985876, "alt_km": 35785.52712295525, "timestamp": "2025-12-10T05:46:13.465302+00:00", "meta": {"OBJECT_NAME": "DIRECTV 12", "OBJECT_ID": "2009-075A", "EPOCH": "2025-12-09T10:42:05.901696", "MEAN_MOTION": 1.00272635, "ECCENTRICITY": 5.415e-05, "INCLINATION": 0.0402, "RA_OF_ASC_NODE": 141.0164, "ARG_OF_PERICENTER": 200.367, "MEAN_ANOMALY": 154.8575, "EPHEMERIS_TYPE": 0, "CLASSIFICATION_TYPE": "U", "NORAD_CAT_ID": 36131, "ELEMENT_SET_NO": 999, "REV_AT_EPOCH": 4465, "BSTAR": 0, "MEAN_MOTION_DOT": -1.01e-06, "MEAN_MOTION_DDOT": 0}, "tle": {"line1": "1 36131U 09075A   25343.44590164 -.00000101  00000+0  00000+0 0  9996", "line2": "2 36131   0.0402 141.0164 0000541 200.3670 154.8575  1.00272635 44657"}}, "geometry": {"type": "Point", "coordinates": [63.06114177985876, -0.008142371362464465]}}, {"type": "Feature", "properties": {"norad_id": 36397, "name": "INTELSAT 16 (IS-16)", "group": "intelsat", "lat": 0.02409659700457599, "lon": 89.56426173385286, "alt_km": 35796.15933804615, "timestamp": "2025-12-10T05:46:13.465314+00:00", "meta": {"OBJECT_NAME": "INTELSAT 16 (IS-16)", "OBJECT_ID": "2010-006A", "EPOCH": "2025-12-09T12:32:17.671200", "MEAN_MOTION": 1.00270281, "ECCENTRICITY": 0.00022839, "INCLINATION": 0.0146, "RA_OF_ASC_NODE": 310.5057, "ARG_OF_PERICENTER": 312.0313, "MEAN_ANOMALY": 287.8475, "EPHEMERIS_TYPE": 0, "CLASSIFICATION_TYPE": "U", "NORAD_CAT_ID": 36397, "ELEMENT_SET_NO": 999, "REV_AT_EPOCH": 5775, "BSTAR": 0, "MEAN_MOTION_DOT": -2.42e-06, "MEAN_MOTION_DDOT": 0}, "tle": {"line1": "1 36397U 10006A   25343.52242675 -.00000242  00000+0  00000+0 0  9992", "line2": "2 36397   0.0146 310.5057 0002283 312.0313 287.8475  1.00270281 57756"}}, "geometry": {"type": "Point", "coordinates": [89.56426173385286, 0.02409659700457599]}}, {"type": "Feature", "properties": {"norad_id": 37185, "name": "XM-5", "group": "intelsat", "lat": 0.05699008236664269, "lon": 50.55660671891489, "alt_km": 35788.10064373331, "timestamp": "2025-12-10T05:46:13.465326+00:00", "meta": {"OBJECT_NAME": "XM-5", "OBJECT_ID": "2010-053A", "EPOCH": "2025-12-09T14:44:15.985824", "MEAN_MOTION": 1.00269308, "ECCENTRICITY": 0.0001556, "INCLINATION": 0.0634, "RA_OF_ASC_NODE": 272.6835, "ARG_OF_PERICENTER": 239.9307, "MEAN_ANOMALY": 31.8615, "EPHEMERIS_TYPE": 0, "CLASSIFICATION_TYPE": "U", "NORAD_CAT_ID": 37185, "ELEMENT_SET_NO": 999, "REV_AT_EPOCH": 5558, "BSTAR": 0, "MEAN_MOTION_DOT": -2e-07, "MEAN_MOTION_DDOT": 0}, "tle": {"line1": "1 37185U 10053A   25343.61407391 -.00000020  00000+0  00000+0 0  9992", "line2": "2 37185   0.0634 272.6835 0001556 239.9307  31.8615  1.00269308 55588"}}, "geometry": {"type": "Point", "coordinates": [50.55660671891489, 0.05699008236664269]}}, {"type": "Feature", "properties": {"norad_id": 37238, "name": "INTELSAT 17 (IS-17)", "group": "intelsat", "lat": -0.02389094486101124, "lon": -128.22642404852843, "alt_km": 35776.744000434584, "timestamp": "2025-12-10T05:46:13.465337+00:00", "meta": {"OBJECT_NAME": "INTELSAT 17 (IS-17)", "OBJECT_ID": "2010-065B", "EPOCH": "2025-12-09T17:58:38.861760", "MEAN_MOTION": 1.00272586, "ECCENTRICITY": 0.0002453, "INCLINATION": 0.0143, "RA_OF_ASC_NODE": 286.032, "ARG_OF_PERICENTER": 334.613, "MEAN_ANOMALY": 153.7653, "EPHEMERIS_TYPE": 0, "CLASSIFICATION_TYPE": "U", "NORAD_CAT_ID": 37238, "ELEMENT_SET_NO": 999, "REV_AT_EPOCH": 5134, "BSTAR": 0, "MEAN_MOTION_DOT": 1e-08, "MEAN_MOTION_DDOT": 0}, "tle": {"line1": "1 37238U 10065B   25343.74906090  .00000001  00000+0  00000+0 0  9996", "line2": "2 37238   0.0143 286.0320 0002453 334.6130 153.7653  1.00272586 51342"}}, "geometry": {"type": "Point", "coordinates": [-128.22642404852843, -0.02389094486101124]}}, {"type": "Feature", "properties": {"norad_id": 37392, "name": "INTELSAT 28 (IS-28)", "group": "intelsat", "lat": 1.0041248992845233, "lon": 134.03220470738398, "alt_km": 35796.517336992634, "timestamp": "2025-12-10T05:46:13.465349+00:00", "meta": {"OBJECT_NAME": "INTELSAT 28 (IS-28)", "OBJECT_ID": "2011-016A", "EPOCH": "2025-12-09T09:59:50.732160", "MEAN_MOTION": 1.00272298, "ECCENTRICITY": 0.00039831, "INCLINATION": 1.3162, "RA_OF_ASC_NODE": 85.0937, "ARG_OF_PERICENTER": 178.1199, "MEAN_ANOMALY": 293.4552, "EPHEMERIS_TYPE": 0, "CLASSIFICATION_TYPE": "U", "NORAD_CAT_ID": 37392, "ELEMENT_SET_NO": 999, "REV_AT_EPOCH": 5138, "BSTAR": 0, "MEAN_MOTION_DOT": -2.23e-06, "MEAN_MOTION_DDOT": 0}, "tle": {"line1": "1 37392U 11016A   25343.41655940 -.00000223  00000+0  00000+0 0  9990", "line2": "2 37392   1.3162  85.0937 0003983 178.1199 293.4552  1.00272298 51388"}}, "geometry": {"type": "Point", "coordinates": [134.03220470738398, 1.0041248992845233]}}]}